{
  "type": "FeatureCollection",
  "features": [
    {
      "type": "Feature",
      "properties": {
        "norad_id": 35052,
        "name": "IRIDIUM 33 DEB",
        "group": "iridium-33-debris",
        "lat": 14.945251013630756,
        "lon": 19.43701667600875,
        "alt_km": 759.0017684037275,
        "timestamp": "2025-12-17T10:52:54.737527+00:00",
        "meta_object_name": "IRIDIUM 33 DEB",
        "meta_object_id": "1997-051NY",
        "meta_epoch": "2025-12-16T08:06:03.894048",
        "meta_mean_motion": 14.38496373,
        "meta_eccentricity": 0.00135749,
        "meta_inclination": 86.3307,
        "meta_ra_of_asc_node": 18.9338,
        "meta_arg_of_pericenter": 75.0638,
        "meta_mean_anomaly": 285.2062,
        "meta_ephemeris_type": 0,
        "meta_classification_type": "U",
        "meta_norad_cat_id": 35052,
        "meta_element_set_no": 999,
        "meta_rev_at_epoch": 87327,
        "meta_bstar": 0.00017087331,
        "meta_mean_motion_dot": 5.42e-06,
        "meta_mean_motion_ddot": 0,
        "tle_line1": "1 35052U 97051NY  25350.33754507  .00000542  00000+0  17087-3 0  9992",
        "tle_line2": "2 35052  86.3307  18.9338 0013574  75.0638 285.2062 14.38496373873275"
      },
      "geometry": {
        "type": "Point",
        "coordinates": [
          19.43701667600875,
          14.945251013630756
        ]
      }
    },
    {
      "type": "Feature",
      "properties": {
        "norad_id": 35080,
        "name": "IRIDIUM 33 DEB",
        "group": "iridium-33-debris",
        "lat": -77.39435483977957,
        "lon": 32.87042006501714,
        "alt_km": 635.7796657479175,
        "timestamp": "2025-12-17T10:52:54.737537+00:00",
        "meta_object_name": "IRIDIUM 33 DEB",
        "meta_object_id": "1997-051PF",
        "meta_epoch": "2025-12-16T11:00:08.968896",
        "meta_mean_motion": 14.86515028,
        "meta_eccentricity": 0.00596582,
        "meta_inclination": 86.2079,
        "meta_ra_of_asc_node": 50.5991,
        "meta_arg_of_pericenter": 166.9442,
        "meta_mean_anomaly": 193.3344,
        "meta_ephemeris_type": 0,
        "meta_classification_type": "U",
        "meta_norad_cat_id": 35080,
        "meta_element_set_no": 999,
        "meta_rev_at_epoch": 69743,
        "meta_bstar": 0.0043661809,
        "meta_mean_motion_dot": 0.00040099,
        "meta_mean_motion_ddot": 0,
        "tle_line1": "1 35080U 97051PF  25350.45843714  .00040099  00000+0  43662-2 0  9993",
        "tle_line2": "2 35080  86.2079  50.5991 0059658 166.9442 193.3344 14.86515028697430"
      },
      "geometry": {
        "type": "Point",
        "coordinates": [
          32.87042006501714,
          -77.39435483977957
        ]
      }
    },
    {
      "type": "Feature",
      "properties": {
        "norad_id": 35297,
        "name": "IRIDIUM 33 DEB",
        "group": "iridium-33-debris",
        "lat": 34.863401807349774,
        "lon": 63.27135198735522,
        "alt_km": 739.4977717189031,
        "timestamp": "2025-12-17T10:52:54.737547+00:00",
        "meta_object_name": "IRIDIUM 33 DEB",
        "meta_object_id": "1997-051PM",
        "meta_epoch": "2025-12-16T11:27:21.167712",
        "meta_mean_motion": 14.45174956,
        "meta_eccentricity": 0.00178431,
        "meta_inclination": 86.3863,
        "meta_ra_of_asc_node": 61.1645,
        "meta_arg_of_pericenter": 129.6186,
        "meta_mean_anomaly": 230.6595,
        "meta_ephemeris_type": 0,
        "meta_classification_type": "U",
        "meta_norad_cat_id": 35297,
        "meta_element_set_no": 999,
        "meta_rev_at_epoch": 70480,
        "meta_bstar": 0.00045011402,
        "meta_mean_motion_dot": 1.598e-05,
        "meta_mean_motion_ddot": 0,
        "tle_line1": "1 35297U 97051PM  25350.47732833  .00001598  00000+0  45011-3 0  9996",
        "tle_line2": "2 35297  86.3863  61.1645 0017843 129.6186 230.6595 14.45174956704806"
      },
      "geometry": {
        "type": "Point",
        "coordinates": [
          63.27135198735522,
          34.863401807349774
        ]
      }
    },
    {
      "type": "Feature",
      "properties": {
        "norad_id": 35299,
        "name": "IRIDIUM 33 DEB",
        "group": "iridium-33-debris",
        "lat": -75.01582667630448,
        "lon": -134.83110684102726,
        "alt_km": 804.1222027113499,
        "timestamp": "2025-12-17T10:52:54.737557+00:00",
        "meta_object_name": "IRIDIUM 33 DEB",
        "meta_object_id": "1997-051PP",
        "meta_epoch": "2025-12-16T10:40:21.082080",
        "meta_mean_motion": 14.40880098,
        "meta_eccentricity": 0.00589087,
        "meta_inclination": 86.2888,
        "meta_ra_of_asc_node": 31.5738,
        "meta_arg_of_pericenter": 90.5856,
        "meta_mean_anomaly": 335.617,
        "meta_ephemeris_type": 0,
        "meta_classification_type": "U",
        "meta_norad_cat_id": 35299,
        "meta_element_set_no": 999,
        "meta_rev_at_epoch": 86384,
        "meta_bstar": 0.00056943755,
        "meta_mean_motion_dot": 1.883e-05,
        "meta_mean_motion_ddot": 0,
        "tle_line1": "1 35299U 97051PP  25350.44468845  .00001883  00000+0  56944-3 0  9998",
        "tle_line2": "2 35299  86.2888  31.5738 0058908  90.5856 335.6170 14.40880098863846"
      },
      "geometry": {
        "type": "Point",
        "coordinates": [
          -134.83110684102726,
          -75.01582667630448
        ]
      }
    },
    {
      "type": "Feature",
      "properties": {
        "norad_id": 35480,
        "name": "IRIDIUM 33 DEB",
        "group": "iridium-33-debris",
        "lat": 33.46101048498411,
        "lon": -159.54391903057157,
        "alt_km": 718.0513119333255,
        "timestamp": "2025-12-17T10:52:54.737567+00:00",
        "meta_object_name": "IRIDIUM 33 DEB",
        "meta_object_id": "1997-051QA",
        "meta_epoch": "2025-12-15T08:30:57.118464",
        "meta_mean_motion": 14.49774703,
        "meta_eccentricity": 0.00160032,
        "meta_inclination": 86.3571,
        "meta_ra_of_asc_node": 23.7786,
        "meta_arg_of_pericenter": 97.0457,
        "meta_mean_anomaly": 263.2568,
        "meta_ephemeris_type": 0,
        "meta_classification_type": "U",
        "meta_norad_cat_id": 35480,
        "meta_element_set_no": 999,
        "meta_rev_at_epoch": 87069,
        "meta_bstar": 0.00045738518,
        "meta_mean_motion_dot": 1.785e-05,
        "meta_mean_motion_ddot": 0,
        "tle_line1": "1 35480U 97051QA  25349.35482776  .00001785  00000+0  45739-3 0  9998",
        "tle_line2": "2 35480  86.3571  23.7786 0016003  97.0457 263.2568 14.49774703870695"
      },
      "geometry": {
        "type": "Point",
        "coordinates": [
          -159.54391903057157,
          33.46101048498411
        ]
      }
    },
    {
      "type": "Feature",
      "properties": {
        "norad_id": 35484,
        "name": "IRIDIUM 33 DEB",
        "group": "iridium-33-debris",
        "lat": 63.4334095570435,
        "lon": -2.1483973142939647,
        "alt_km": 551.5934414444,
        "timestamp": "2025-12-17T10:52:54.737577+00:00",
        "meta_object_name": "IRIDIUM 33 DEB",
        "meta_object_id": "1997-051QE",
        "meta_epoch": "2025-12-13T07:15:48.307680",
        "meta_mean_motion": 14.98714194,
        "meta_eccentricity": 0.00237352,
        "meta_inclination": 86.3615,
        "meta_ra_of_asc_node": 352.4822,
        "meta_arg_of_pericenter": 123.3819,
        "meta_mean_anomaly": 236.9688,
        "meta_ephemeris_type": 0,
        "meta_classification_type": "U",
        "meta_norad_cat_id": 35484,
        "meta_element_set_no": 999,
        "meta_rev_at_epoch": 62024,
        "meta_bstar": 0.0048114888,
        "meta_mean_motion_dot": 0.00058609,
        "meta_mean_motion_ddot": 0,
        "tle_line1": "1 35484U 97051QE  25347.30264245  .00058609  00000+0  48115-2 0  9991",
        "tle_line2": "2 35484  86.3615 352.4822 0023735 123.3819 236.9688 14.98714194620242"
      },
      "geometry": {
        "type": "Point",
        "coordinates": [
          -2.1483973142939647,
          63.4334095570435
        ]
      }
    },
    {
      "type": "Feature",
      "properties": {
        "norad_id": 35488,
        "name": "IRIDIUM 33 DEB",
        "group": "iridium-33-debris",
        "lat": -84.07862347109236,
        "lon": 157.021627083125,
        "alt_km": 637.6196967329524,
        "timestamp": "2025-12-17T10:52:54.737587+00:00",
        "meta_object_name": "IRIDIUM 33 DEB",
        "meta_object_id": "1997-051QJ",
        "meta_epoch": "2025-12-16T20:44:04.560288",
        "meta_mean_motion": 14.83164398,
        "meta_eccentricity": 0.00293463,
        "meta_inclination": 86.3231,
        "meta_ra_of_asc_node": 298.9766,
        "meta_arg_of_pericenter": 29.4676,
        "meta_mean_anomaly": 330.8193,
        "meta_ephemeris_type": 0,
        "meta_classification_type": "U",
        "meta_norad_cat_id": 35488,
        "meta_element_set_no": 999,
        "meta_rev_at_epoch": 88327,
        "meta_bstar": 0.0013553768,
        "meta_mean_motion_dot": 0.00011171,
        "meta_mean_motion_ddot": 0,
        "tle_line1": "1 35488U 97051QJ  25350.86394167  .00011171  00000+0  13554-2 0  9999",
        "tle_line2": "2 35488  86.3231 298.9766 0029346  29.4676 330.8193 14.83164398883270"
      },
      "geometry": {
        "type": "Point",
        "coordinates": [
          157.021627083125,
          -84.07862347109236
        ]
      }
    }
  ]
}